STARLINK-32826          
1 62970U 25029Y   26068.70541742  .00038165  00000+0  12937-2 0  9990
2 62970  53.1603 232.1196 0001583  32.5798 327.5300 15.30208080 61328
TEVEL2-3                
1 63218U 25052J   26068.64540225  .00020365  00000+0  69446-3 0  9991
2 63218  97.3994 324.7775 0004761 105.7353 254.4413 15.30377031 54855
